ONEWEB-0379             
1 49305U 21090AC  24159.32522413 -.00000014  00000+0 -71778-4 0  9996
2 49305  87.8970  76.9076 0002010  81.1790 278.9567 13.14501790130364
ONEWEB-0380             
1 49306U 21090AD  24159.74393711  .00000053  00000+0  10033-3 0  9997
2 49306  87.9151  92.1237 0002077  78.2139 281.9227 13.19723776128890
ONEWEB-0381             
1 49307U 21090AE  24159.84779971  .00000055  00000+0  10440-3 0  9999
2 49307  87.9221  61.5404 0001849  77.6856 282.4484 13.20772731132231
ONEWEB-0382             
1 49308U 21090AF  24159.68365738 -.00000095  00000+0 -26621-3 0  9998
2 49308  87.9221  61.5700 0001616  90.8303 269.3015 13.20770690132200
ONEWEB-0383             
1 49309U 21090AG  24159.69946965  .00000060  00000+0  12610-3 0  9990
2 49309  87.8965  76.8217 0001947  85.6094 274.5258 13.14502643130448
ONEWEB-0384             
1 49310U 21090AH  24159.45322344  .00000086  00000+0  17985-3 0  9993
2 49310  87.9224  61.6272 0001536  93.5215 266.6094 13.20769552132183
ONEWEB-0385             
1 49311U 21090AJ  24159.44850229  .00000099  00000+0  21265-3 0  9991
2 49311  87.9225  61.6295 0001590  84.9928 275.1387 13.20770401132157
ONEWEB-0386             
1 49312U 21090AK  24158.48102879  .00000068  00000+0  13469-3 0  9999
2 49312  87.9215  61.8177 0001698  87.6291 272.5036 13.20769386132040
